{"type": "FeatureCollection", "features": [{"type": "Feature", "geometry": {"type": "MultiPolygon", "coordinates": [[[[78.0091207787157, 8.782567540766793, 0.0], [78.00891708765465, 8.781941643733536, 0.0], [78.0089153948418, 8.781935446215748, 0.0], [78.00847223375078, 8.780338067658219, 0.0], [78.00783240657805, 8.780503498879737, 0.0], [78.00785323215959, 8.78058474671634, 0.0], [78.00791078447946, 8.7808431220671, 0.0], [78.00812272582678, 8.781839303961355, 0.0], [78.00832069787405, 8.782735082179949, 0.0], [78.0091207787157, 8.782567540766793, 0.0]]]]}, "properties": {"dist_name": "Thoothukudi", "taluk_name": "Thoothukudi", "vil_name": "Peroorani", "unit_id": "5", "block_id": "1", "survey_no": "176", "patta_candidate_count": 3, "patta_subdivision_candidates": "1; 2; 4", "patta_raw_extents": "0 63.00; 0 33.00; 0 73.50", "patta_following_numeric_values": "1.75; 0.92; 2.02", "review_status": "Possible parent-survey link only; subdivision and ownership not verified"}}, {"type": "Feature", "geometry": {"type": "MultiPolygon", "coordinates": [[[[78.00918467841808, 8.781869946743894, 0.0], [78.0095324135253, 8.78178684206944, 0.0], [78.0104308745953, 8.781583470702163, 0.0], [78.0104843712376, 8.78157158136823, 0.0], [78.01006949553002, 8.780090032221256, 0.0], [78.00991205517153, 8.780120146207052, 0.0], [78.00845586224787, 8.780252313337938, 0.0], [78.00847223375078, 8.780338067658219, 0.0], [78.0089153948418, 8.781935446215748, 0.0], [78.00918467841808, 8.781869946743894, 0.0]]]]}, "properties": {"dist_name": "Thoothukudi", "taluk_name": "Thoothukudi", "vil_name": "Peroorani", "unit_id": "5", "block_id": "1", "survey_no": "174", "patta_candidate_count": 4, "patta_subdivision_candidates": "1A; 2A; 2B; 3", "patta_raw_extents": "0 85.00; 0 27.00; 0 49.00; 1 - 2.00", "patta_following_numeric_values": "2.35; 0.75; 1.35; 2.82", "review_status": "Possible parent-survey link only; subdivision and ownership not verified"}}, {"type": "Feature", "geometry": {"type": "MultiPolygon", "coordinates": [[[[78.01014980103986, 8.7828037427468, 0.0], [78.01008714028464, 8.782506800144397, 0.0], [78.01068173376325, 8.782320621809891, 0.0], [78.0104308745953, 8.781583470702163, 0.0], [78.0095324135253, 8.78178684206944, 0.0], [78.00918467841808, 8.781869946743894, 0.0], [78.0089153948418, 8.781935446215748, 0.0], [78.00891708765465, 8.781941643733536, 0.0], [78.0091207787157, 8.782567540766793, 0.0], [78.00926933624493, 8.783038296114647, 0.0], [78.01014980103986, 8.7828037427468, 0.0]]]]}, "properties": {"dist_name": "Thoothukudi", "taluk_name": "Thoothukudi", "vil_name": "Peroorani", "unit_id": "5", "block_id": "2", "survey_no": "175", "patta_candidate_count": 2, "patta_subdivision_candidates": "1; 2", "patta_raw_extents": "0 63.00; 1 28.00", "patta_following_numeric_values": "1.75; 3.54", "review_status": "Possible parent-survey link only; subdivision and ownership not verified"}}, {"type": "Feature", "geometry": {"type": "MultiPolygon", "coordinates": [[[[78.00827685522967, 8.791656358815088, 0.0], [78.00890461103623, 8.791482762346106, 0.0], [78.00924814478743, 8.791401616697236, 0.0], [78.00880793003752, 8.790985819169173, 0.0], [78.00851094238752, 8.790708802150634, 0.0], [78.00813157212336, 8.790485909421534, 0.0], [78.0079434687215, 8.790436792946064, 0.0], [78.00760285214734, 8.790356937889765, 0.0], [78.00778625486915, 8.791488584983714, 0.0], [78.00784445505278, 8.79183374889607, 0.0], [78.00827685522967, 8.791656358815088, 0.0]]]]}, "properties": {"dist_name": "Thoothukudi", "taluk_name": "Thoothukudi", "vil_name": "Peroorani", "unit_id": "4", "block_id": "8", "survey_no": "211", "patta_candidate_count": 1, "patta_subdivision_candidates": "3", "patta_raw_extents": "0 58.50", "patta_following_numeric_values": "1.17", "review_status": "Possible parent-survey link only; subdivision and ownership not verified"}}, {"type": "Feature", "geometry": {"type": "MultiPolygon", "coordinates": [[[[78.00947503372635, 8.78986638983878, 0.0], [78.00943133719731, 8.78949150998665, 0.0], [78.01027710910265, 8.789158229044794, 0.0], [78.0109474731862, 8.78887758625105, 0.0], [78.01113549415922, 8.788853812093901, 0.0], [78.01093130077331, 8.788206749273307, 0.0], [78.01078593951807, 8.787727126208006, 0.0], [78.01064308717639, 8.787726427653691, 0.0], [78.01053711882938, 8.787353720574657, 0.0], [78.01044580886327, 8.787147672548212, 0.0], [78.00985041353692, 8.787384110681167, 0.0], [78.00981369324327, 8.787346103591503, 0.0], [78.00899873401515, 8.78755106100447, 0.0], [78.00899168503638, 8.78755258449659, 0.0], [78.0085682131172, 8.787642382183643, 0.0], [78.00869804652669, 8.78823889967826, 0.0], [78.00887985903071, 8.789083716160697, 0.0], [78.00897762105926, 8.789533583257597, 0.0], [78.00907172882606, 8.789960346827211, 0.0], [78.00947503372635, 8.78986638983878, 0.0]]]]}, "properties": {"dist_name": "Thoothukudi", "taluk_name": "Thoothukudi", "vil_name": "Peroorani", "unit_id": "4", "block_id": "8", "survey_no": "214", "patta_candidate_count": 7, "patta_subdivision_candidates": "2; 3; 4; 5; 6; 7; 8", "patta_raw_extents": "1 11.50; 0 52.00; 0 88.00; 0 50.50; 0 40.50; 0 48.50; 0 48.00", "patta_following_numeric_values": "2.24; 1.04; 1.77; 1.01; 0.81; 0.97; 0.96", "review_status": "Possible parent-survey link only; subdivision and ownership not verified"}}, {"type": "Feature", "geometry": {"type": "MultiPolygon", "coordinates": [[[[78.0117603929627, 8.788878166735003, 0.0], [78.01216507067724, 8.78867717508582, 0.0], [78.01234270988071, 8.788635257674136, 0.0], [78.01267630797219, 8.788523420678645, 0.0], [78.01273581558527, 8.788714822773692, 0.0], [78.01273455905712, 8.788722449819359, 0.0], [78.01320285684736, 8.788535019389375, 0.0], [78.01302530135646, 8.787920880365487, 0.0], [78.01323315580782, 8.787811115930541, 0.0], [78.01333584540119, 8.787771415084036, 0.0], [78.01334493731187, 8.787768676527808, 0.0], [78.01326293515906, 8.787541124264564, 0.0], [78.0131206931124, 8.787018052289032, 0.0], [78.01304277835463, 8.786699650495446, 0.0], [78.01255232723574, 8.786733661942275, 0.0], [78.01229022265906, 8.786821292032046, 0.0], [78.01191407688611, 8.786928289159519, 0.0], [78.01142892311393, 8.787068559736381, 0.0], [78.01118987831518, 8.78713688384157, 0.0], [78.01120959735177, 8.787220582084728, 0.0], [78.01053711882938, 8.787353720574657, 0.0], [78.01064308717639, 8.787726427653691, 0.0], [78.01078593951807, 8.787727126208006, 0.0], [78.01093130077331, 8.788206749273307, 0.0], [78.01113549415922, 8.788853812093901, 0.0], [78.0109474731862, 8.78887758625105, 0.0], [78.01109520107055, 8.789218640830201, 0.0], [78.0117603929627, 8.788878166735003, 0.0]]]]}, "properties": {"dist_name": "Thoothukudi", "taluk_name": "Thoothukudi", "vil_name": "Peroorani", "unit_id": "4", "block_id": "11", "survey_no": "215", "patta_candidate_count": 5, "patta_subdivision_candidates": "1; 2; 4; 5B; 5D", "patta_raw_extents": "0 84.00; 0 52.50; 0 94.00; 0 77.50; 0 50.00", "patta_following_numeric_values": "1.68; 1.05; 1.88; 1.55; 1.00", "review_status": "Possible parent-survey link only; subdivision and ownership not verified"}}, {"type": "Feature", "geometry": {"type": "MultiPolygon", "coordinates": [[[[78.01072749227066, 8.791039153519169, 0.0], [78.01137521583712, 8.790743862383632, 0.0], [78.01171552189558, 8.790592705910303, 0.0], [78.01161745433757, 8.790053475158155, 0.0], [78.01262561988494, 8.789674530360926, 0.0], [78.01285187593011, 8.789591103204653, 0.0], [78.01269106935635, 8.788982908228295, 0.0], [78.01240030183801, 8.78906143027306, 0.0], [78.01225635674994, 8.789123374026454, 0.0], [78.01176007294154, 8.789497123636199, 0.0], [78.01128704945762, 8.789863802957477, 0.0], [78.01099398344124, 8.790459084027201, 0.0], [78.01080286623268, 8.790848930357367, 0.0], [78.01072170424735, 8.791040606101827, 0.0], [78.01072749227066, 8.791039153519169, 0.0]]]]}, "properties": {"dist_name": "Thoothukudi", "taluk_name": "Thoothukudi", "vil_name": "Peroorani", "unit_id": "4", "block_id": "11", "survey_no": "218", "patta_candidate_count": 4, "patta_subdivision_candidates": "2; 3; 4; 5", "patta_raw_extents": "0 29.00; 0 15.50; 0 20.00; 0 27.00", "patta_following_numeric_values": "0.58; 0.31; 0.41; 0.54", "review_status": "Possible parent-survey link only; subdivision and ownership not verified"}}, {"type": "Feature", "geometry": {"type": "MultiPolygon", "coordinates": [[[[78.01443140397492, 8.787441403999528, 0.0], [78.01547467252027, 8.787032292883914, 0.0], [78.0157813501089, 8.786945362486133, 0.0], [78.01565959322446, 8.786656772149323, 0.0], [78.0155306519132, 8.786326184804535, 0.0], [78.01543329658604, 8.786066295941154, 0.0], [78.01510240307493, 8.786164142155284, 0.0], [78.01437647050534, 8.78637148035618, 0.0], [78.01419365429038, 8.786425008958082, 0.0], [78.0136218087823, 8.786592743674078, 0.0], [78.01304277835463, 8.786699650495446, 0.0], [78.0131206931124, 8.787018052289032, 0.0], [78.01326293515906, 8.787541124264564, 0.0], [78.01334493731187, 8.787768676527808, 0.0], [78.01443140397492, 8.787441403999528, 0.0]]]]}, "properties": {"dist_name": "Thoothukudi", "taluk_name": "Thoothukudi", "vil_name": "Peroorani", "unit_id": "5", "block_id": "4", "survey_no": "224", "patta_candidate_count": 2, "patta_subdivision_candidates": "1; 3", "patta_raw_extents": "0 65.50; 0 39.50", "patta_following_numeric_values": "1.31; 0.79", "review_status": "Possible parent-survey link only; subdivision and ownership not verified"}}, {"type": "Feature", "geometry": {"type": "MultiPolygon", "coordinates": [[[[78.01304277835463, 8.786699650495446, 0.0], [78.0136218087823, 8.786592743674078, 0.0], [78.01419365429038, 8.786425008958082, 0.0], [78.01437647050534, 8.78637148035618, 0.0], [78.01406032566044, 8.78549425380292, 0.0], [78.0138341088917, 8.784982494764716, 0.0], [78.01343683542855, 8.785079606933879, 0.0], [78.01314504781723, 8.784443632530818, 0.0], [78.01209495134177, 8.784717654514631, 0.0], [78.01220301131733, 8.785218965887356, 0.0], [78.01242312110783, 8.786177598767141, 0.0], [78.01255232723574, 8.786733661942275, 0.0], [78.01304277835463, 8.786699650495446, 0.0]]]]}, "properties": {"dist_name": "Thoothukudi", "taluk_name": "Thoothukudi", "vil_name": "Peroorani", "unit_id": "5", "block_id": "4", "survey_no": "225", "patta_candidate_count": 8, "patta_subdivision_candidates": "1; 2A; 2B; 3; 4A; 4B; 4C; 5", "patta_raw_extents": "0 63.50; 0 34.00; 0 28.00; 0 67.50; 0 27.00; 0 27.00; 0 52.00; 0 90.50", "patta_following_numeric_values": "1.76; 0.95; 0.75; 1.87; 0.75; 0.75; 1.40; 2.51", "review_status": "Possible parent-survey link only; subdivision and ownership not verified"}}, {"type": "Feature", "geometry": {"type": "MultiPolygon", "coordinates": [[[[78.00658445959331, 8.784775601130388, 0.0], [78.00732282455243, 8.784585717186634, 0.0], [78.00737712344646, 8.784625372193673, 0.0], [78.00825017734144, 8.7844354082969, 0.0], [78.00858382821914, 8.784364389275138, 0.0], [78.00856476744376, 8.784220001592562, 0.0], [78.0084503642681, 8.784039924450052, 0.0], [78.00843097607783, 8.783841513931467, 0.0], [78.00832069787405, 8.782735082179949, 0.0], [78.00794156975019, 8.78279346831971, 0.0], [78.00665691135072, 8.783004561421063, 0.0], [78.00599102897164, 8.783077820727895, 0.0], [78.00593890611685, 8.783391537349912, 0.0], [78.00635575962369, 8.78484154972536, 0.0], [78.00658445959331, 8.784775601130388, 0.0]]]]}, "properties": {"dist_name": "Thoothukudi", "taluk_name": "Thoothukudi", "vil_name": "Peroorani", "unit_id": "5", "block_id": "2", "survey_no": "197", "patta_candidate_count": 1, "patta_subdivision_candidates": "6", "patta_raw_extents": "0 73.50", "patta_following_numeric_values": "2.04", "review_status": "Possible parent-survey link only; subdivision and ownership not verified"}}, {"type": "Feature", "geometry": {"type": "MultiPolygon", "coordinates": [[[[78.00977744703957, 8.785013822120181, 0.0], [78.00980458835437, 8.785118832653255, 0.0], [78.01060707819651, 8.78494690871888, 0.0], [78.01057193801435, 8.784719073777818, 0.0], [78.01051893428175, 8.784340012949283, 0.0], [78.01041689945416, 8.78397555698057, 0.0], [78.00991384915494, 8.784080087584751, 0.0], [78.00958160895644, 8.784149508863596, 0.0], [78.00946187424395, 8.783980739317808, 0.0], [78.00925333396425, 8.78403713606195, 0.0], [78.0089529117675, 8.784114964208305, 0.0], [78.00856476744376, 8.784220001592562, 0.0], [78.00858382821914, 8.784364389275138, 0.0], [78.0087397864385, 8.785223407704894, 0.0], [78.00977744703957, 8.785013822120181, 0.0]]]]}, "properties": {"dist_name": "Thoothukudi", "taluk_name": "Thoothukudi", "vil_name": "Peroorani", "unit_id": "5", "block_id": "3", "survey_no": "200", "patta_candidate_count": 2, "patta_subdivision_candidates": "1; 2", "patta_raw_extents": "0 82.50; 1 38.50", "patta_following_numeric_values": "2.28; 3.83", "review_status": "Possible parent-survey link only; subdivision and ownership not verified"}}, {"type": "Feature", "geometry": {"type": "MultiPolygon", "coordinates": [[[[78.01118987831518, 8.78713688384157, 0.0], [78.01142892311393, 8.787068559736381, 0.0], [78.01191407688611, 8.786928289159519, 0.0], [78.01229022265906, 8.786821292032046, 0.0], [78.01255232723574, 8.786733661942275, 0.0], [78.01242312110783, 8.786177598767141, 0.0], [78.01220301131733, 8.785218965887356, 0.0], [78.01209495134177, 8.784717654514631, 0.0], [78.0119124613704, 8.784749346768084, 0.0], [78.011473210699, 8.784827303663644, 0.0], [78.01105424498375, 8.784888552090345, 0.0], [78.01060707819651, 8.78494690871888, 0.0], [78.01070206186323, 8.785361848773848, 0.0], [78.01083596492407, 8.785916979353345, 0.0], [78.01098140197688, 8.786536853785709, 0.0], [78.01108423051956, 8.78694362068743, 0.0], [78.01113496113231, 8.787151827351178, 0.0], [78.01118987831518, 8.78713688384157, 0.0]]]]}, "properties": {"dist_name": "Thoothukudi", "taluk_name": "Thoothukudi", "vil_name": "Peroorani", "unit_id": "4", "block_id": "9", "survey_no": "201", "patta_candidate_count": 5, "patta_subdivision_candidates": "1A; 1B; 1D; 2A; 2B", "patta_raw_extents": "0 46.50; 0 47.50; 1 19.00; 0 66.00; 0 63.50", "patta_following_numeric_values": "1.30; 1.30; 3.30; 1.80; 1.80", "review_status": "Possible parent-survey link only; subdivision and ownership not verified"}}, {"type": "Feature", "geometry": {"type": "MultiPolygon", "coordinates": [[[[78.0089529117675, 8.784114964208305, 0.0], [78.00925333396425, 8.78403713606195, 0.0], [78.00946187424395, 8.783980739317808, 0.0], [78.00926933624493, 8.783038296114647, 0.0], [78.0091207787157, 8.782567540766793, 0.0], [78.00832069787405, 8.782735082179949, 0.0], [78.00843097607783, 8.783841513931467, 0.0], [78.0084503642681, 8.784039924450052, 0.0], [78.00856476744376, 8.784220001592562, 0.0], [78.0089529117675, 8.784114964208305, 0.0]]]]}, "properties": {"dist_name": "Thoothukudi", "taluk_name": "Thoothukudi", "vil_name": "Peroorani", "unit_id": "5", "block_id": "2", "survey_no": "198", "patta_candidate_count": 2, "patta_subdivision_candidates": "1; 3", "patta_raw_extents": "0 39.50; 0 79.50", "patta_following_numeric_values": "1.10; 2.20", "review_status": "Possible parent-survey link only; subdivision and ownership not verified"}}, {"type": "Feature", "geometry": {"type": "MultiPolygon", "coordinates": [[[[78.01171929971274, 8.784071741783144, 0.0], [78.01161244687222, 8.783581508089979, 0.0], [78.01118110446576, 8.783689154050695, 0.0], [78.01105684414853, 8.78309265911741, 0.0], [78.01087233476208, 8.783120090975592, 0.0], [78.01068173376325, 8.782320621809891, 0.0], [78.01008714028464, 8.782506800144397, 0.0], [78.01014980103986, 8.7828037427468, 0.0], [78.00926933624493, 8.783038296114647, 0.0], [78.00946187424395, 8.783980739317808, 0.0], [78.00958160895644, 8.784149508863596, 0.0], [78.00991384915494, 8.784080087584751, 0.0], [78.01041689945416, 8.78397555698057, 0.0], [78.01051893428175, 8.784340012949283, 0.0], [78.01171929971274, 8.784071741783144, 0.0]]]]}, "properties": {"dist_name": "Thoothukudi", "taluk_name": "Thoothukudi", "vil_name": "Peroorani", "unit_id": "5", "block_id": "2", "survey_no": "199", "patta_candidate_count": 4, "patta_subdivision_candidates": "3; 4A; 4B; 5", "patta_raw_extents": "0 41.50; 0 38.00; 0 39.00; 1 22.50", "patta_following_numeric_values": "1.15; 1.05; 1.10; 3.38", "review_status": "Possible parent-survey link only; subdivision and ownership not verified"}}, {"type": "Feature", "geometry": {"type": "MultiPolygon", "coordinates": [[[[78.00710653820337, 8.78560080281109, 0.0], [78.0078576343129, 8.785423191703174, 0.0], [78.0084401687285, 8.785297800269504, 0.0], [78.0087397864385, 8.785223407704894, 0.0], [78.00858382821914, 8.784364389275138, 0.0], [78.00825017734144, 8.7844354082969, 0.0], [78.00737712344646, 8.784625372193673, 0.0], [78.00732282455243, 8.784585717186634, 0.0], [78.00658445959331, 8.784775601130388, 0.0], [78.00635575962369, 8.78484154972536, 0.0], [78.00657979890019, 8.78572057130403, 0.0], [78.00710653820337, 8.78560080281109, 0.0]]]]}, "properties": {"dist_name": "Thoothukudi", "taluk_name": "Thoothukudi", "vil_name": "Peroorani", "unit_id": "5", "block_id": "3", "survey_no": "204", "patta_candidate_count": 2, "patta_subdivision_candidates": "1; 2", "patta_raw_extents": "1 68.50; 0 31.50", "patta_following_numeric_values": "4.66; 0.87", "review_status": "Possible parent-survey link only; subdivision and ownership not verified"}}, {"type": "Feature", "geometry": {"type": "MultiPolygon", "coordinates": [[[[78.01120959735177, 8.787220582084728, 0.0], [78.01118987831518, 8.78713688384157, 0.0], [78.01113496113231, 8.787151827351178, 0.0], [78.01108423051956, 8.78694362068743, 0.0], [78.01098140197688, 8.786536853785709, 0.0], [78.01083596492407, 8.785916979353345, 0.0], [78.01070206186323, 8.785361848773848, 0.0], [78.01060707819651, 8.78494690871888, 0.0], [78.00980458835437, 8.785118832653255, 0.0], [78.01019369412599, 8.786622304540625, 0.0], [78.01044580886327, 8.787147672548212, 0.0], [78.01053711882938, 8.787353720574657, 0.0], [78.01120959735177, 8.787220582084728, 0.0]]]]}, "properties": {"dist_name": "Thoothukudi", "taluk_name": "Thoothukudi", "vil_name": "Peroorani", "unit_id": "4", "block_id": "9", "survey_no": "202", "patta_candidate_count": 3, "patta_subdivision_candidates": "1; 2; 4", "patta_raw_extents": "0 69.50; 0 37.00; 0 78.00", "patta_following_numeric_values": "1.93; 1.03; 2.15", "review_status": "Possible parent-survey link only; subdivision and ownership not verified"}}, {"type": "Feature", "geometry": {"type": "MultiPolygon", "coordinates": [[[[78.00899873401515, 8.78755106100447, 0.0], [78.00981369324327, 8.787346103591503, 0.0], [78.00985041353692, 8.787384110681167, 0.0], [78.01044580886327, 8.787147672548212, 0.0], [78.01019369412599, 8.786622304540625, 0.0], [78.00980458835437, 8.785118832653255, 0.0], [78.00977744703957, 8.785013822120181, 0.0], [78.0087397864385, 8.785223407704894, 0.0], [78.0084401687285, 8.785297800269504, 0.0], [78.00860838091748, 8.785994296655808, 0.0], [78.00871700237232, 8.786468589966937, 0.0], [78.00899168503638, 8.78755258449659, 0.0], [78.00899873401515, 8.78755106100447, 0.0]]]]}, "properties": {"dist_name": "Thoothukudi", "taluk_name": "Thoothukudi", "vil_name": "Peroorani", "unit_id": "4", "block_id": "9", "survey_no": "203", "patta_candidate_count": 3, "patta_subdivision_candidates": "2; 3; 4", "patta_raw_extents": "0 70.50; 1 11.00; 1 65.00", "patta_following_numeric_values": "1.95; 3.07; 4.57", "review_status": "Possible parent-survey link only; subdivision and ownership not verified"}}, {"type": "Feature", "geometry": {"type": "MultiPolygon", "coordinates": [[[[78.00899168503638, 8.78755258449659, 0.0], [78.00871700237232, 8.786468589966937, 0.0], [78.00860838091748, 8.785994296655808, 0.0], [78.0084401687285, 8.785297800269504, 0.0], [78.0078576343129, 8.785423191703174, 0.0], [78.00710653820337, 8.78560080281109, 0.0], [78.00657979890019, 8.78572057130403, 0.0], [78.0065818648211, 8.785728614803812, 0.0], [78.00681305545697, 8.786571758755912, 0.0], [78.00702146911772, 8.78723862774496, 0.0], [78.00704361561736, 8.787298680956303, 0.0], [78.00705552119125, 8.787363356170543, 0.0], [78.00735083024806, 8.787287950481995, 0.0], [78.00734331450616, 8.787206298093352, 0.0], [78.0078971286905, 8.787093041587664, 0.0], [78.00801387009966, 8.787388206020731, 0.0], [78.00855979417969, 8.787282424766362, 0.0], [78.0085682131172, 8.787642382183643, 0.0], [78.00899168503638, 8.78755258449659, 0.0]]]]}, "properties": {"dist_name": "Thoothukudi", "taluk_name": "Thoothukudi", "vil_name": "Peroorani", "unit_id": "4", "block_id": "10", "survey_no": "206", "patta_candidate_count": 5, "patta_subdivision_candidates": "1; 3; 4; 5; 6", "patta_raw_extents": "0 28.50; 1 11.50; 1 34.00; 0 51.00; 0 73.00", "patta_following_numeric_values": "0.78; 3.69; 3.72; 1.41; 2.02", "review_status": "Possible parent-survey link only; subdivision and ownership not verified"}}, {"type": "Feature", "geometry": {"type": "MultiPolygon", "coordinates": [[[[78.00866757505231, 8.790069499064677, 0.0], [78.00907172882606, 8.789960346827211, 0.0], [78.00897762105926, 8.789533583257597, 0.0], [78.00887985903071, 8.789083716160697, 0.0], [78.00869804652669, 8.78823889967826, 0.0], [78.0085682131172, 8.787642382183643, 0.0], [78.00855979417969, 8.787282424766362, 0.0], [78.00801387009966, 8.787388206020731, 0.0], [78.0078971286905, 8.787093041587664, 0.0], [78.00734331450616, 8.787206298093352, 0.0], [78.00735083024806, 8.787287950481995, 0.0], [78.00705552119125, 8.787363356170543, 0.0], [78.00720979640595, 8.787833797863968, 0.0], [78.0073564463521, 8.788261359516778, 0.0], [78.0075935171907, 8.788917688783418, 0.0], [78.00769842093885, 8.789277634613276, 0.0], [78.0078930695596, 8.789947948770857, 0.0], [78.00831251649282, 8.790157342955933, 0.0], [78.00866757505231, 8.790069499064677, 0.0]]]]}, "properties": {"dist_name": "Thoothukudi", "taluk_name": "Thoothukudi", "vil_name": "Peroorani", "unit_id": "4", "block_id": "10", "survey_no": "207", "patta_candidate_count": 5, "patta_subdivision_candidates": "1; 2; 3; 4; 5", "patta_raw_extents": "0 54.00; 1 52.00; 0 66.50; 0 81.00; 0 50.00", "patta_following_numeric_values": "1.08; 3.05; 1.33; 1.62; 1.00", "review_status": "Possible parent-survey link only; subdivision and ownership not verified"}}, {"type": "Feature", "geometry": {"type": "MultiPolygon", "coordinates": [[[[78.01279122617325, 8.779881842716868, 0.0], [78.01318146030623, 8.779803321819852, 0.0], [78.01356630724634, 8.779681806313635, 0.0], [78.01319741066871, 8.77813995835618, 0.0], [78.01248922056108, 8.77826197333544, 0.0], [78.01236601663263, 8.777987345429484, 0.0], [78.01197517370218, 8.778027451773543, 0.0], [78.01159033900261, 8.778206505308649, 0.0], [78.01162992251284, 8.778443953018405, 0.0], [78.01171048177065, 8.77846076546722, 0.0], [78.01205660343287, 8.780034171953105, 0.0], [78.01279122617325, 8.779881842716868, 0.0]]]]}, "properties": {"dist_name": "Thoothukudi", "taluk_name": "Thoothukudi", "vil_name": "Peroorani", "unit_id": "5", "block_id": "9", "survey_no": "245", "patta_candidate_count": 4, "patta_subdivision_candidates": "1; 2; 3; 4", "patta_raw_extents": "0 40.50; 0 55.00; 0 34.50; 2 20.00", "patta_following_numeric_values": "1.12; 1.52; 0.95; 6.09", "review_status": "Possible parent-survey link only; subdivision and ownership not verified"}}, {"type": "Feature", "geometry": {"type": "MultiPolygon", "coordinates": [[[[78.01105684414853, 8.78309265911741, 0.0], [78.01147148655292, 8.783006361928514, 0.0], [78.01141621031509, 8.782667389058615, 0.0], [78.01133791431305, 8.782181095605099, 0.0], [78.01117555545522, 8.781433416353515, 0.0], [78.01104423523142, 8.781463774785525, 0.0], [78.01091924406009, 8.780976695883716, 0.0], [78.01077121336581, 8.780395835101967, 0.0], [78.01060331968455, 8.779998215949194, 0.0], [78.01006949553002, 8.780090032221256, 0.0], [78.0104843712376, 8.78157158136823, 0.0], [78.0104308745953, 8.781583470702163, 0.0], [78.01068173376325, 8.782320621809891, 0.0], [78.01087233476208, 8.783120090975592, 0.0], [78.01105684414853, 8.78309265911741, 0.0]]]]}, "properties": {"dist_name": "Thoothukudi", "taluk_name": "Thoothukudi", "vil_name": "Peroorani", "unit_id": "5", "block_id": "8", "survey_no": "243", "patta_candidate_count": 2, "patta_subdivision_candidates": "1; 2", "patta_raw_extents": "1 24.50; 1 3.00", "patta_following_numeric_values": "3.45; 2.84", "review_status": "Possible parent-survey link only; subdivision and ownership not verified"}}, {"type": "Feature", "geometry": {"type": "MultiPolygon", "coordinates": [[[[78.01205143294926, 8.780035242322569, 0.0], [78.01205660343287, 8.780034171953105, 0.0], [78.01171048177065, 8.77846076546722, 0.0], [78.01162992251284, 8.778443953018405, 0.0], [78.01159033900261, 8.778206505308649, 0.0], [78.01101681795001, 8.778590541109507, 0.0], [78.01052846918563, 8.778497386969756, 0.0], [78.01067026077251, 8.779290984184628, 0.0], [78.01095804902738, 8.779265413533553, 0.0], [78.01109593710257, 8.779773111391883, 0.0], [78.01120604330404, 8.780175354594768, 0.0], [78.01205143294926, 8.780035242322569, 0.0]]]]}, "properties": {"dist_name": "Thoothukudi", "taluk_name": "Thoothukudi", "vil_name": "Peroorani", "unit_id": "5", "block_id": "9", "survey_no": "246", "patta_candidate_count": 3, "patta_subdivision_candidates": "1B; 2; 3", "patta_raw_extents": "0 27.00; 0 68.00; 0 - 97.00", "patta_following_numeric_values": "0.75; 1.88; 2.68", "review_status": "Possible parent-survey link only; subdivision and ownership not verified"}}, {"type": "Feature", "geometry": {"type": "MultiPolygon", "coordinates": [[[[78.00953332818295, 8.777869636291593, 0.0], [78.00932353338666, 8.777829015255888, 0.0], [78.00936695784851, 8.77820788868701, 0.0], [78.00928736077564, 8.778251328846977, 0.0], [78.00936633181284, 8.778473473932813, 0.0], [78.00968959894361, 8.778434085336826, 0.0], [78.00975695437337, 8.778919899119, 0.0], [78.00986588662835, 8.779812035759507, 0.0], [78.00991205517153, 8.780120146207052, 0.0], [78.01006949553002, 8.780090032221256, 0.0], [78.01060331968455, 8.779998215949194, 0.0], [78.01077121336581, 8.780395835101967, 0.0], [78.01120604330404, 8.780175354594768, 0.0], [78.01109593710257, 8.779773111391883, 0.0], [78.01095804902738, 8.779265413533553, 0.0], [78.01067026077251, 8.779290984184628, 0.0], [78.01052846919758, 8.778497387031123, 0.0], [78.00953332818295, 8.777869636291593, 0.0]]]]}, "properties": {"dist_name": "Thoothukudi", "taluk_name": "Thoothukudi", "vil_name": "Peroorani", "unit_id": "5", "block_id": "9", "survey_no": "247", "patta_candidate_count": 5, "patta_subdivision_candidates": "1B; 2; 4; 5; 1A", "patta_raw_extents": "0 46.00; 0 50.00; 0 9.50; 0 9.50; 1 - 20.00", "patta_following_numeric_values": "1.27; 1.38; 0.27; 0.26; 3.32", "review_status": "Possible parent-survey link only; subdivision and ownership not verified"}}, {"type": "Feature", "geometry": {"type": "MultiPolygon", "coordinates": [[[[78.01510240307493, 8.786164142155284, 0.0], [78.01543329658604, 8.786066295941154, 0.0], [78.01527461275792, 8.785680902733572, 0.0], [78.01484528322403, 8.784639742933376, 0.0], [78.01459485645914, 8.78400683100184, 0.0], [78.01371021066652, 8.7842008157745, 0.0], [78.0138341088917, 8.784982494764716, 0.0], [78.01406032566044, 8.78549425380292, 0.0], [78.01437647050534, 8.78637148035618, 0.0], [78.01510240307493, 8.786164142155284, 0.0]]]]}, "properties": {"dist_name": "Thoothukudi", "taluk_name": "Thoothukudi", "vil_name": "Peroorani", "unit_id": "5", "block_id": "4", "survey_no": "228", "patta_candidate_count": 3, "patta_subdivision_candidates": "2; 3; 4", "patta_raw_extents": "0 21.50; 0 72.50; 0 46.50", "patta_following_numeric_values": "0.43; 1.45; 0.93", "review_status": "Possible parent-survey link only; subdivision and ownership not verified"}}, {"type": "Feature", "geometry": {"type": "MultiPolygon", "coordinates": [[[[78.01105424498375, 8.784888552090345, 0.0], [78.011473210699, 8.784827303663644, 0.0], [78.0119124613704, 8.784749346768084, 0.0], [78.01209495134177, 8.784717654514631, 0.0], [78.01314504781723, 8.784443632530818, 0.0], [78.01290559950985, 8.783379118078239, 0.0], [78.01276116749891, 8.78273448683581, 0.0], [78.01235360249001, 8.782795905211316, 0.0], [78.01147148655292, 8.783006361928514, 0.0], [78.01105684414853, 8.78309265911741, 0.0], [78.01118110446576, 8.783689154050695, 0.0], [78.01161244687222, 8.783581508089979, 0.0], [78.01171929971274, 8.784071741783144, 0.0], [78.01051893428175, 8.784340012949283, 0.0], [78.01057193801435, 8.784719073777818, 0.0], [78.01060707819651, 8.78494690871888, 0.0], [78.01105424498375, 8.784888552090345, 0.0]]]]}, "properties": {"dist_name": "Thoothukudi", "taluk_name": "Thoothukudi", "vil_name": "Peroorani", "unit_id": "5", "block_id": "3", "survey_no": "226", "patta_candidate_count": 3, "patta_subdivision_candidates": "1; 3A; 3B", "patta_raw_extents": "1 95.00; 0 60.50; 0 59.50", "patta_following_numeric_values": "5.40; 1.67; 1.65", "review_status": "Possible parent-survey link only; subdivision and ownership not verified"}}, {"type": "Feature", "geometry": {"type": "MultiPolygon", "coordinates": [[[[78.0138341088917, 8.784982494764716, 0.0], [78.01371021066652, 8.7842008157745, 0.0], [78.01459485645914, 8.78400683100184, 0.0], [78.01426301184975, 8.78308520936023, 0.0], [78.01404630762413, 8.782461758524104, 0.0], [78.01342823705397, 8.782594691032935, 0.0], [78.01333321699877, 8.782664614384645, 0.0], [78.01276116749891, 8.78273448683581, 0.0], [78.01290559950985, 8.783379118078239, 0.0], [78.01314504781723, 8.784443632530818, 0.0], [78.01343683542855, 8.785079606933879, 0.0], [78.0138341088917, 8.784982494764716, 0.0]]]]}, "properties": {"dist_name": "Thoothukudi", "taluk_name": "Thoothukudi", "vil_name": "Peroorani", "unit_id": "5", "block_id": "3", "survey_no": "227", "patta_candidate_count": 3, "patta_subdivision_candidates": "1; 2A; 2B", "patta_raw_extents": "0 48.00; 0 62.00; 1 35.00", "patta_following_numeric_values": "1.33; 1.70; 3.70", "review_status": "Possible parent-survey link only; subdivision and ownership not verified"}}, {"type": "Feature", "geometry": {"type": "MultiPolygon", "coordinates": [[[[78.01556537716127, 8.784419275820861, 0.0], [78.01587322362255, 8.784324111302832, 0.0], [78.01592212866677, 8.784249461248699, 0.0], [78.01679805752293, 8.784018148772113, 0.0], [78.01674102000331, 8.783664783184774, 0.0], [78.01640282678909, 8.78374967522525, 0.0], [78.01607679451094, 8.782922035552827, 0.0], [78.01549241213436, 8.782935128765859, 0.0], [78.01490984474042, 8.782940064945107, 0.0], [78.01470692051447, 8.78298029734669, 0.0], [78.01426301184975, 8.78308520936023, 0.0], [78.01459485645914, 8.78400683100184, 0.0], [78.01484528322403, 8.784639742933376, 0.0], [78.01556537716127, 8.784419275820861, 0.0]]]]}, "properties": {"dist_name": "Thoothukudi", "taluk_name": "Thoothukudi", "vil_name": "Peroorani", "unit_id": "5", "block_id": "5", "survey_no": "232", "patta_candidate_count": 3, "patta_subdivision_candidates": "1; 2; 3", "patta_raw_extents": "0 92.50; 1 48.00; 0 44.00", "patta_following_numeric_values": "1.85; 2.96; 0.88", "review_status": "Possible parent-survey link only; subdivision and ownership not verified"}}, {"type": "Feature", "geometry": {"type": "MultiPolygon", "coordinates": [[[[78.01674102000331, 8.783664783184774, 0.0], [78.01673335063998, 8.783617268549543, 0.0], [78.01671091104117, 8.783478248726784, 0.0], [78.01698089962687, 8.783395715146721, 0.0], [78.01662359261466, 8.781962346130987, 0.0], [78.01656626839957, 8.781729058281257, 0.0], [78.01596985124011, 8.781866257606726, 0.0], [78.01625446237281, 8.782918500107291, 0.0], [78.01607679451094, 8.782922035552827, 0.0], [78.01640282678909, 8.78374967522525, 0.0], [78.01674102000331, 8.783664783184774, 0.0]]]]}, "properties": {"dist_name": "Thoothukudi", "taluk_name": "Thoothukudi", "vil_name": "Peroorani", "unit_id": "5", "block_id": "6", "survey_no": "233", "patta_candidate_count": 1, "patta_subdivision_candidates": "2", "patta_raw_extents": "0 58.00", "patta_following_numeric_values": "1.60", "review_status": "Possible parent-survey link only; subdivision and ownership not verified"}}, {"type": "Feature", "geometry": {"type": "MultiPolygon", "coordinates": [[[[78.01716444711633, 8.785999621349635, 0.0], [78.01701766803681, 8.785533446317547, 0.0], [78.01758759634544, 8.785359634483042, 0.0], [78.01750932092426, 8.784949332056822, 0.0], [78.01742595255581, 8.784523569999378, 0.0], [78.01716207891607, 8.784574802256497, 0.0], [78.01706250277965, 8.78429243748583, 0.0], [78.01690063751549, 8.784318607054997, 0.0], [78.01679805752293, 8.784018148772113, 0.0], [78.01592212866677, 8.784249461248699, 0.0], [78.01587322362255, 8.784324111302832, 0.0], [78.01556537716127, 8.784419275820861, 0.0], [78.01484528322403, 8.784639742933376, 0.0], [78.01527461275792, 8.785680902733572, 0.0], [78.01543329658604, 8.786066295941154, 0.0], [78.0164126302071, 8.785715910711106, 0.0], [78.01645565330674, 8.785786264624623, 0.0], [78.01665732631966, 8.785721338844866, 0.0], [78.01682135173172, 8.786153293586676, 0.0], [78.01716444711633, 8.785999621349635, 0.0]]]]}, "properties": {"dist_name": "Thoothukudi", "taluk_name": "Thoothukudi", "vil_name": "Peroorani", "unit_id": "5", "block_id": "5", "survey_no": "230", "patta_candidate_count": 1, "patta_subdivision_candidates": "2", "patta_raw_extents": "1 76.50", "patta_following_numeric_values": "3.53", "review_status": "Possible parent-survey link only; subdivision and ownership not verified"}}, {"type": "Feature", "geometry": {"type": "MultiPolygon", "coordinates": [[[[78.0171721279567, 8.785996019654515, 0.0], [78.01821785866025, 8.78554125409127, 0.0], [78.01818869147306, 8.785445530871886, 0.0], [78.01828960674848, 8.785396494769168, 0.0], [78.01802397736193, 8.784761177292182, 0.0], [78.01830791819052, 8.784528427782421, 0.0], [78.01809462829281, 8.783671788458124, 0.0], [78.01792203102858, 8.78325527279183, 0.0], [78.01739909867617, 8.783406569073708, 0.0], [78.01673335063998, 8.783617268549543, 0.0], [78.01674102000331, 8.783664783184774, 0.0], [78.01679805752293, 8.784018148772113, 0.0], [78.01690063751549, 8.784318607054997, 0.0], [78.01706250277965, 8.78429243748583, 0.0], [78.01716207891607, 8.784574802256497, 0.0], [78.01742595255581, 8.784523569999378, 0.0], [78.01750932092426, 8.784949332056822, 0.0], [78.01758759634544, 8.785359634483042, 0.0], [78.01701766803681, 8.785533446317547, 0.0], [78.01716444711633, 8.785999621349635, 0.0], [78.0171721279567, 8.785996019654515, 0.0]]]]}, "properties": {"dist_name": "Thoothukudi", "taluk_name": "Thoothukudi", "vil_name": "Peroorani", "unit_id": "5", "block_id": "5", "survey_no": "231", "patta_candidate_count": 2, "patta_subdivision_candidates": "1; 2", "patta_raw_extents": "1 7.00; 0 71.50", "patta_following_numeric_values": "2.15; 1.43", "review_status": "Possible parent-survey link only; subdivision and ownership not verified"}}, {"type": "Feature", "geometry": {"type": "MultiPolygon", "coordinates": [[[[78.01757776252107, 8.780107731777612, 0.0], [78.01743294517424, 8.778157301614527, 0.0], [78.01724125053586, 8.777447445486514, 0.0], [78.0157504422676, 8.777795889139822, 0.0], [78.01598290606654, 8.77914395482091, 0.0], [78.01628688409616, 8.780344846104834, 0.0], [78.01757776252107, 8.780107731777612, 0.0]]]]}, "properties": {"dist_name": "Thoothukudi", "taluk_name": "Thoothukudi", "vil_name": "Peroorani", "unit_id": "5", "block_id": "6", "survey_no": "235", "patta_candidate_count": 1, "patta_subdivision_candidates": "2", "patta_raw_extents": "0 74.00", "patta_following_numeric_values": "2.05", "review_status": "Possible parent-survey link only; subdivision and ownership not verified"}}, {"type": "Feature", "geometry": {"type": "MultiPolygon", "coordinates": [[[[78.01598080459344, 8.779135706224025, 0.0], [78.015981361907, 8.779135000187104, 0.0], [78.0157504422676, 8.777795889139822, 0.0], [78.0156883560326, 8.777492235415824, 0.0], [78.01433629553912, 8.77785251294568, 0.0], [78.01319741066871, 8.77813995835618, 0.0], [78.01356630724634, 8.779681806313635, 0.0], [78.01412872107053, 8.779616147661237, 0.0], [78.01598080459344, 8.779135706224025, 0.0]]]]}, "properties": {"dist_name": "Thoothukudi", "taluk_name": "Thoothukudi", "vil_name": "Peroorani", "unit_id": "5", "block_id": "7", "survey_no": "238", "patta_candidate_count": 1, "patta_subdivision_candidates": "2", "patta_raw_extents": "1 27.50", "patta_following_numeric_values": "3.53", "review_status": "Possible parent-survey link only; subdivision and ownership not verified"}}, {"type": "Feature", "geometry": {"type": "MultiPolygon", "coordinates": [[[[78.015981361907, 8.779135000187104, 0.0], [78.01598080459344, 8.779135706224025, 0.0], [78.01412872107053, 8.779616147661237, 0.0], [78.01425421685603, 8.780095452491459, 0.0], [78.0144376532424, 8.780069499710493, 0.0], [78.01477671854892, 8.78110112538919, 0.0], [78.01437386826836, 8.781204198319363, 0.0], [78.01450605335657, 8.7815928349026, 0.0], [78.01561498097568, 8.781367594645207, 0.0], [78.01613153931571, 8.781258992972887, 0.0], [78.01604916660008, 8.780779937173179, 0.0], [78.01636812453629, 8.780652813110365, 0.0], [78.01628688409616, 8.780344846104834, 0.0], [78.01598290606654, 8.77914395482091, 0.0], [78.01582611010576, 8.778234689573546, 0.0], [78.015981361907, 8.779135000187104, 0.0]]]]}, "properties": {"dist_name": "Thoothukudi", "taluk_name": "Thoothukudi", "vil_name": "Peroorani", "unit_id": "5", "block_id": "7", "survey_no": "239", "patta_candidate_count": 1, "patta_subdivision_candidates": "-", "patta_raw_extents": "4 - 33.50", "patta_following_numeric_values": "12.00", "review_status": "Possible parent-survey link only; subdivision and ownership not verified"}}, {"type": "Feature", "geometry": {"type": "MultiPolygon", "coordinates": [[[[78.00936633181284, 8.778473473932813, 0.0], [78.00928736077564, 8.778251328846977, 0.0], [78.00936695784851, 8.77820788868701, 0.0], [78.00932353338666, 8.777829015255888, 0.0], [78.00920253237999, 8.777546704679892, 0.0], [78.00878114555164, 8.777336987290811, 0.0], [78.00868087467755, 8.777046964556103, 0.0], [78.00823523575207, 8.776915712277873, 0.0], [78.00794300670164, 8.776743159027834, 0.0], [78.0077898038578, 8.77689511400261, 0.0], [78.00797587643925, 8.777273935278012, 0.0], [78.00803539892857, 8.777605719946365, 0.0], [78.00795829796674, 8.777688216244858, 0.0], [78.00804164031409, 8.778143476961551, 0.0], [78.00814449774657, 8.778663652877082, 0.0], [78.00936633181284, 8.778473473932813, 0.0]]]]}, "properties": {"dist_name": "Thoothukudi", "taluk_name": "Thoothukudi", "vil_name": "Peroorani", "unit_id": "5", "block_id": "1", "survey_no": "172", "patta_candidate_count": 2, "patta_subdivision_candidates": "1; 2", "patta_raw_extents": "0 53.50; 0 19.50", "patta_following_numeric_values": "1.48; 0.54", "review_status": "Possible parent-survey link only; subdivision and ownership not verified"}}, {"type": "Feature", "geometry": {"type": "MultiPolygon", "coordinates": [[[[78.00991205517153, 8.780120146207052, 0.0], [78.00986588662835, 8.779812035759507, 0.0], [78.00975695437337, 8.778919899119, 0.0], [78.00968959894361, 8.778434085336826, 0.0], [78.00936633181284, 8.778473473932813, 0.0], [78.00814449774657, 8.778663652877082, 0.0], [78.0082483079987, 8.779208924029309, 0.0], [78.00838230292544, 8.77987126629146, 0.0], [78.00845586224787, 8.780252313337938, 0.0], [78.00991205517153, 8.780120146207052, 0.0]]]]}, "properties": {"dist_name": "Thoothukudi", "taluk_name": "Thoothukudi", "vil_name": "Peroorani", "unit_id": "5", "block_id": "1", "survey_no": "173", "patta_candidate_count": 3, "patta_subdivision_candidates": "1; 2; 3", "patta_raw_extents": "0 95.50; 0 86.00; 1 21.00", "patta_following_numeric_values": "2.64; 2.37; 3.36", "review_status": "Possible parent-survey link only; subdivision and ownership not verified"}}], "crs": {"type": "name", "properties": {"name": "urn:ogc:def:crs:OGC:1.3:CRS84"}}}